[
  {
    "OBJECT_NAME": "STARLINK-32491",
    "OBJECT_ID": "2024-216M",
    "EPOCH": "2026-06-11T02:10:59.566000",
    "MEAN_MOTION": 15.27602914,
    "ECCENTRICITY": 0.0001976,
    "INCLINATION": 43.002,
    "RA_OF_ASC_NODE": 96.3221,
    "ARG_OF_PERICENTER": 264.8452,
    "MEAN_ANOMALY": 95.2174,
    "EPHEMERIS_TYPE": 0,
    "CLASSIFICATION_TYPE": "U",
    "NORAD_CAT_ID": 62043,
    "ELEMENT_SET_NO": 999,
    "REV_AT_EPOCH": 8807,
    "BSTAR": 0.0007400600000000001,
    "MEAN_MOTION_DOT": 0.00020173,
    "MEAN_MOTION_DDOT": 0
  }
]
