STARLINK-32491          
1 62043U 24216M   26162.09096720  .00020173  00000+0  74006-3 0  9992
2 62043  43.0020  96.3221 0001976 264.8452  95.2174 15.27602914 88071
